[{"OBJECT_NAME":"ONEWEB-0706","OBJECT_ID":"2024-188T","EPOCH":"2025-08-12T08:18:24.564096","MEAN_MOTION":13.10413484,"ECCENTRICITY":0.0001307,"INCLINATION":87.8782,"RA_OF_ASC_NODE":97.8701,"ARG_OF_PERICENTER":81.8066,"MEAN_ANOMALY":278.321,"EPHEMERIS_TYPE":0,"CLASSIFICATION_TYPE":"U","NORAD_CAT_ID":61611,"ELEMENT_SET_NO":999,"REV_AT_EPOCH":4104,"BSTAR":0.00080305,"MEAN_MOTION_DOT":2.93e-6,"MEAN_MOTION_DDOT":0},{"OBJECT_NAME":"ONEWEB-0707","OBJECT_ID":"2024-188U","EPOCH":"2025-08-12T02:58:04.863360","MEAN_MOTION":13.10373302,"ECCENTRICITY":0.000113,"INCLINATION":87.8779,"RA_OF_ASC_NODE":97.8801,"ARG_OF_PERICENTER":75.4657,"MEAN_ANOMALY":284.6595,"EPHEMERIS_TYPE":0,"CLASSIFICATION_TYPE":"U","NORAD_CAT_ID":61612,"ELEMENT_SET_NO":999,"REV_AT_EPOCH":4088,"BSTAR":-0.00030857,"MEAN_MOTION_DOT":-9.5e-7,"MEAN_MOTION_DDOT":0},{"OBJECT_NAME":"ONEWEB-0708","OBJECT_ID":"2024-188V","EPOCH":"2025-08-11T21:54:30.618432","MEAN_MOTION":13.10373552,"ECCENTRICITY":0.0001036,"INCLINATION":87.8817,"RA_OF_ASC_NODE":97.9564,"ARG_OF_PERICENTER":97.483,"MEAN_ANOMALY":262.6415,"EPHEMERIS_TYPE":0,"CLASSIFICATION_TYPE":"U","NORAD_CAT_ID":61613,"ELEMENT_SET_NO":999,"REV_AT_EPOCH":4106,"BSTAR":-0.0017369,"MEAN_MOTION_DOT":-5.94e-6,"MEAN_MOTION_DDOT":0}]
